start=new Date('2023-04-09T00:00:00.000Z').valueOf();
sats=[{"MEAN_ANOMALY":"266.1614","TLE_LINE2":"2 53389  53.2146 230.3606 0001235  93.9519 266.1614 15.08828327 37716","RA_OF_ASC_NODE":"230.3606","ELEMENT_SET_NO":"999","BSTAR":"0.00044922000000","APOAPSIS":"540.635","SEMIMAJOR_AXIS":"6917.916","INCLINATION":"53.2146","CLASSIFICATION_TYPE":"U","FILE":"3883527","MEAN_ELEMENT_THEORY":"SGP4","NORAD_CAT_ID":"53389","PERIOD":"95.438","EPHEMERIS_TYPE":"0","OBJECT_NAME":"STARLINK-4523","LAUNCH_DATE":"2022-08-10","SITE":"AFETR","EPOCH":"2023-04-08T12:22:52.183200","RCS_SIZE":"LARGE","GP_ID":"229731429","ECCENTRICITY":"0.00012350","TLE_LINE1":"1 53389U 22097B   23098.51588175  .00006866  00000-0  44922-3 0  9990","TIME_SYSTEM":"UTC","MEAN_MOTION":"15.08828327","PERIAPSIS":"538.927","MEAN_MOTION_DDOT":"0.0000000000000","COUNTRY_CODE":"US","REV_AT_EPOCH":"3771","CENTER_NAME":"EARTH","ARG_OF_PERICENTER":"93.9519","DECAY_DATE":null,"MEAN_MOTION_DOT":"0.00006866","OBJECT_TYPE":"PAYLOAD","OBJECT_ID":"2022-097B","REF_FRAME":"TEME"},{"ARG_OF_PERICENTER":"96.6680","REV_AT_EPOCH":"3786","COUNTRY_CODE":"US","CENTER_NAME":"EARTH","MEAN_MOTION_DOT":"0.00001323","DECAY_DATE":null,"OBJECT_TYPE":"PAYLOAD","OBJECT_ID":"2022-097C","REF_FRAME":"TEME","TLE_LINE1":"1 53390U 22097C   23098.51955513  .00001323  00000-0  10122-3 0  9994","TIME_SYSTEM":"UTC","MEAN_MOTION":"15.08838189","PERIAPSIS":"538.807","MEAN_MOTION_DDOT":"0.0000000000000","OBJECT_NAME":"STARLINK-4517","LAUNCH_DATE":"2022-08-10","PERIOD":"95.438","EPHEMERIS_TYPE":"0","SITE":"AFETR","EPOCH":"2023-04-08T12:28:09.563232","RCS_SIZE":"LARGE","ECCENTRICITY":"0.00013650","GP_ID":"229730681","TLE_LINE2":"2 53390  53.2145 230.3449 0001365  96.6680 263.4467 15.08838189 37864","MEAN_ANOMALY":"263.4467","BSTAR":"0.00010122000000","ELEMENT_SET_NO":"999","APOAPSIS":"540.695","RA_OF_ASC_NODE":"230.3449","CLASSIFICATION_TYPE":"U","FILE":"3883527","SEMIMAJOR_AXIS":"6917.886","INCLINATION":"53.2145","MEAN_ELEMENT_THEORY":"SGP4","NORAD_CAT_ID":"53390"},{"MEAN_MOTION":"15.08832943","TIME_SYSTEM":"UTC","TLE_LINE1":"1 53391U 22097D   23098.51218249 -.00009651  00000-0 -58922-3 0  9997","MEAN_MOTION_DDOT":"0.0000000000000","PERIAPSIS":"538.904","MEAN_MOTION_DOT":"-0.00009651","DECAY_DATE":null,"ARG_OF_PERICENTER":"72.4467","CENTER_NAME":"EARTH","REV_AT_EPOCH":"3771","COUNTRY_CODE":"US","REF_FRAME":"TEME","OBJECT_ID":"2022-097D","OBJECT_TYPE":"PAYLOAD","APOAPSIS":"540.630","BSTAR":"-0.00058922000000","ELEMENT_SET_NO":"999","RA_OF_ASC_NODE":"230.3776","TLE_LINE2":"2 53391  53.2150 230.3776 0001248  72.4467 287.6661 15.08832943 37719","MEAN_ANOMALY":"287.6661","MEAN_ELEMENT_THEORY":"SGP4","NORAD_CAT_ID":"53391","CLASSIFICATION_TYPE":"U","FILE":"3883527","INCLINATION":"53.2150","SEMIMAJOR_AXIS":"6917.902","SITE":"AFETR","LAUNCH_DATE":"2022-08-10","OBJECT_NAME":"STARLINK-4521","EPHEMERIS_TYPE":"0","PERIOD":"95.438","GP_ID":"229730931","ECCENTRICITY":"0.00012480","RCS_SIZE":"LARGE","EPOCH":"2023-04-08T12:17:32.567136"},{"TLE_LINE2":"2 53392  53.2142 230.4110 0001461  93.0138 267.1021 15.08837087 37712","MEAN_ANOMALY":"267.1021","BSTAR":"0.00002551100000","ELEMENT_SET_NO":"999","APOAPSIS":"540.765","RA_OF_ASC_NODE":"230.4110","FILE":"3883527","CLASSIFICATION_TYPE":"U","INCLINATION":"53.2142","SEMIMAJOR_AXIS":"6917.889","NORAD_CAT_ID":"53392","MEAN_ELEMENT_THEORY":"SGP4","LAUNCH_DATE":"2022-08-10","OBJECT_NAME":"STARLINK-4535","PERIOD":"95.438","EPHEMERIS_TYPE":"0","SITE":"AFETR","EPOCH":"2023-04-08T12:06:57.792384","RCS_SIZE":"LARGE","ECCENTRICITY":"0.00014610","GP_ID":"229731183","TLE_LINE1":"1 53392U 22097E   23098.50483556  .00000118  00000-0  25511-4 0  9998","TIME_SYSTEM":"UTC","MEAN_MOTION":"15.08837087","PERIAPSIS":"538.744","MEAN_MOTION_DDOT":"0.0000000000000","ARG_OF_PERICENTER":"93.0138","COUNTRY_CODE":"US","REV_AT_EPOCH":"3771","CENTER_NAME":"EARTH","MEAN_MOTION_DOT":"0.00000118","DECAY_DATE":null,"OBJECT_TYPE":"PAYLOAD","OBJECT_ID":"2022-097E","REF_FRAME":"TEME"},{"MEAN_MOTION_DOT":"-0.00000587","DECAY_DATE":null,"ARG_OF_PERICENTER":"71.8548","CENTER_NAME":"EARTH","COUNTRY_CODE":"US","REV_AT_EPOCH":"3771","REF_FRAME":"TEME","OBJECT_TYPE":"PAYLOAD","OBJECT_ID":"2022-097F","MEAN_MOTION":"15.08838144","TIME_SYSTEM":"UTC","TLE_LINE1":"1 53393U 22097F   23098.50851747 -.00000587  00000-0 -18807-4 0  9992","MEAN_MOTION_DDOT":"0.0000000000000","PERIAPSIS":"538.832","SITE":"AFETR","OBJECT_NAME":"STARLINK-4530","LAUNCH_DATE":"2022-08-10","EPHEMERIS_TYPE":"0","PERIOD":"95.438","GP_ID":"229731928","ECCENTRICITY":"0.00013280","RCS_SIZE":"LARGE","EPOCH":"2023-04-08T12:12:15.909408","APOAPSIS":"540.670","BSTAR":"-0.00001880700000","ELEMENT_SET_NO":"999","RA_OF_ASC_NODE":"230.3952","TLE_LINE2":"2 53393  53.2156 230.3952 0001328  71.8548 288.2588 15.08838144 37719","MEAN_ANOMALY":"288.2588","MEAN_ELEMENT_THEORY":"SGP4","NORAD_CAT_ID":"53393","FILE":"3883527","CLASSIFICATION_TYPE":"U","INCLINATION":"53.2156","SEMIMAJOR_AXIS":"6917.886"},{"EPOCH":"2023-04-08T12:52:01.203456","GP_ID":"229730182","ECCENTRICITY":"0.00009520","RCS_SIZE":"LARGE","LAUNCH_DATE":"2022-08-10","OBJECT_NAME":"STARLINK-4544","EPHEMERIS_TYPE":"0","PERIOD":"95.438","SITE":"AFETR","CLASSIFICATION_TYPE":"U","FILE":"3883527","SEMIMAJOR_AXIS":"6917.884","INCLINATION":"53.2123","NORAD_CAT_ID":"53394","MEAN_ELEMENT_THEORY":"SGP4","TLE_LINE2":"2 53394  53.2123 220.0464 0000952  71.1467 288.9629 15.08838699 37867","MEAN_ANOMALY":"288.9629","APOAPSIS":"540.408","ELEMENT_SET_NO":"999","BSTAR":"0.00033942000000","RA_OF_ASC_NODE":"220.0464","OBJECT_ID":"2022-097G","OBJECT_TYPE":"PAYLOAD","REF_FRAME":"TEME","ARG_OF_PERICENTER":"71.1467","CENTER_NAME":"EARTH","REV_AT_EPOCH":"3786","COUNTRY_CODE":"US","MEAN_MOTION_DOT":"0.00005118","DECAY_DATE":null,"PERIAPSIS":"539.091","MEAN_MOTION_DDOT":"0.0000000000000","TLE_LINE1":"1 53394U 22097G   23098.53612504  .00005118  00000-0  33942-3 0  9991","MEAN_MOTION":"15.08838699","TIME_SYSTEM":"UTC"},{"REF_FRAME":"TEME","OBJECT_ID":"2022-097H","OBJECT_TYPE":"PAYLOAD","DECAY_DATE":null,"MEAN_MOTION_DOT":"0.00000257","CENTER_NAME":"EARTH","COUNTRY_CODE":"US","REV_AT_EPOCH":"3755","ARG_OF_PERICENTER":"85.3758","MEAN_MOTION_DDOT":"0.0000000000000","PERIAPSIS":"538.896","MEAN_MOTION":"15.08839310","TIME_SYSTEM":"UTC","TLE_LINE1":"1 53395U 22097H   23098.50115599  .00000257  00000-0  34223-4 0  9994","ECCENTRICITY":"0.00012310","GP_ID":"229730432","RCS_SIZE":"LARGE","EPOCH":"2023-04-08T12:01:39.877536","SITE":"AFETR","EPHEMERIS_TYPE":"0","PERIOD":"95.438","LAUNCH_DATE":"2022-08-10","OBJECT_NAME":"STARLINK-4534","MEAN_ELEMENT_THEORY":"SGP4","NORAD_CAT_ID":"53395","INCLINATION":"53.2143","SEMIMAJOR_AXIS":"6917.882","CLASSIFICATION_TYPE":"U","FILE":"3883527","RA_OF_ASC_NODE":"230.4214","APOAPSIS":"540.599","ELEMENT_SET_NO":"999","BSTAR":"0.00003422300000","MEAN_ANOMALY":"274.7375","TLE_LINE2":"2 53395  53.2143 230.4214 0001231  85.3758 274.7375 15.08839310 37557"},{"OBJECT_ID":"2022-097J","OBJECT_TYPE":"PAYLOAD","REF_FRAME":"TEME","REV_AT_EPOCH":"3756","COUNTRY_CODE":"US","CENTER_NAME":"EARTH","ARG_OF_PERICENTER":"83.0071","DECAY_DATE":null,"MEAN_MOTION_DOT":"0.00000560","PERIAPSIS":"538.701","MEAN_MOTION_DDOT":"0.0000000000000","TLE_LINE1":"1 53396U 22097J   23098.55267861  .00000560  00000-0  53285-4 0  9996","TIME_SYSTEM":"UTC","MEAN_MOTION":"15.08834829","EPOCH":"2023-04-08T13:15:51.431904","RCS_SIZE":"LARGE","ECCENTRICITY":"0.00015330","GP_ID":"229731682","PERIOD":"95.438","EPHEMERIS_TYPE":"0","LAUNCH_DATE":"2022-08-10","OBJECT_NAME":"STARLINK-4524","SITE":"AFETR","INCLINATION":"53.2149","SEMIMAJOR_AXIS":"6917.896","FILE":"3883527","CLASSIFICATION_TYPE":"U","MEAN_ELEMENT_THEORY":"SGP4","NORAD_CAT_ID":"53396","MEAN_ANOMALY":"277.1095","TLE_LINE2":"2 53396  53.2149 230.1970 0001533  83.0071 277.1095 15.08834829 37565","RA_OF_ASC_NODE":"230.1970","ELEMENT_SET_NO":"999","BSTAR":"0.00005328500000","APOAPSIS":"540.822"},{"REF_FRAME":"TEME","OBJECT_ID":"2022-097K","OBJECT_TYPE":"PAYLOAD","DECAY_DATE":null,"MEAN_MOTION_DOT":"0.00001365","CENTER_NAME":"EARTH","REV_AT_EPOCH":"3756","COUNTRY_CODE":"US","ARG_OF_PERICENTER":"52.6943","MEAN_MOTION_DDOT":"0.0000000000000","PERIAPSIS":"539.032","MEAN_MOTION":"15.08835505","TIME_SYSTEM":"UTC","TLE_LINE1":"1 53397U 22097K   23098.56371905  .00001365  00000-0  10381-3 0  9996","GP_ID":"229731430","ECCENTRICITY":"0.00010510","RCS_SIZE":"LARGE","EPOCH":"2023-04-08T13:31:45.325920","SITE":"AFETR","EPHEMERIS_TYPE":"0","PERIOD":"95.438","OBJECT_NAME":"STARLINK-4515","LAUNCH_DATE":"2022-08-10","MEAN_ELEMENT_THEORY":"SGP4","NORAD_CAT_ID":"53397","INCLINATION":"53.2136","SEMIMAJOR_AXIS":"6917.894","CLASSIFICATION_TYPE":"U","FILE":"3883527","RA_OF_ASC_NODE":"230.1473","APOAPSIS":"540.486","ELEMENT_SET_NO":"999","BSTAR":"0.00010381000000","MEAN_ANOMALY":"307.4145","TLE_LINE2":"2 53397  53.2136 230.1473 0001051  52.6943 307.4145 15.08835505 37560"},{"ARG_OF_PERICENTER":"104.9415","COUNTRY_CODE":"US","REV_AT_EPOCH":"3756","CENTER_NAME":"EARTH","MEAN_MOTION_DOT":"0.00002401","DECAY_DATE":null,"OBJECT_TYPE":"PAYLOAD","OBJECT_ID":"2022-097L","REF_FRAME":"TEME","TLE_LINE1":"1 53398U 22097L   23098.54530807  .00002401  00000-0  16884-3 0  9999","TIME_SYSTEM":"UTC","MEAN_MOTION":"15.08850073","PERIAPSIS":"538.480","MEAN_MOTION_DDOT":"0.0000000000000","OBJECT_NAME":"STARLINK-4512","LAUNCH_DATE":"2022-08-10","PERIOD":"95.437","EPHEMERIS_TYPE":"0","SITE":"AFETR","EPOCH":"2023-04-08T13:05:14.617248","RCS_SIZE":"LARGE","ECCENTRICITY":"0.00017850","GP_ID":"229730682","TLE_LINE2":"2 53398  53.2210 230.2319 0001785 104.9415 255.1775 15.08850073 37568","MEAN_ANOMALY":"255.1775","BSTAR":"0.00016884000000","ELEMENT_SET_NO":"999","APOAPSIS":"540.949","RA_OF_ASC_NODE":"230.2319","FILE":"3883527","CLASSIFICATION_TYPE":"U","INCLINATION":"53.2210","SEMIMAJOR_AXIS":"6917.850","MEAN_ELEMENT_THEORY":"SGP4","NORAD_CAT_ID":"53398"}];
